CIC_OEM_VERS = 2.0
CREATION_DATE = 2025-06-17T14:14:37.363407
ORIGINATOR = ISAE-SUPAERO


META_START
OBJECT_NAME = PLEIADES1A
OBJECT_ID = PLEIADES1A
CENTER_NAME = Earth
REF_FRAME = EME2000
TIME_SYSTEM = UTC
START_TIME = 2025-06-17T04:04:25.278
USEABLE_START_TIME = 2025-06-17T04:04:25.278
USEABLE_STOP_TIME = 2025-06-23T21:53:25.278
STOP_TIME = 2025-06-23T21:53:25.278
INTERPOLATION = lagrange
INTERPOLATION_DEGREE = 5
META_STOP



60843 14665.278 -1213.9854 -185.14744000000002 6967.707200000001 3.2368267 6.731808699999999 0.74241055
60843 15085.278 219.0178 2568.4599 6592.5079000000005 3.4735281000000002 6.157633 -2.5146037000000003
60843 15505.278 1608.7931 4822.3588 4935.112400000001 3.0336999000000002 4.3864134 -5.2738276
60843 15925.278 2686.9352999999996 6141.4518 2317.0082 2.005207 1.764987 -7.0041093000000005
60843 16345.278 3240.6426 6262.5483 -752.5421600000001 0.59104582 -1.1943518 -7.3791625000000005
60843 16765.278 3166.2381 5169.3918 -3677.3237999999997 -0.93924851 -3.9249311 -6.3184186
60843 17185.278 2477.6256000000003 3073.3286000000003 -5887.1844 -2.2850863 -5.8907191999999995 -4.0319452
60843 17605.278 1309.3368 382.16679 -6954.4555 -3.1864886 -6.7133646 -0.96713469
60843 18025.278 -112.15574000000001 -2382.9435 -6673.3332 -3.471243 -6.237304600000001 2.2839278
60843 18445.278 -1511.8497 -4686.871099999999 -5097.7578 -3.0842022000000004 -4.5528337 5.0957523
60843 18865.278 -2618.4469 -6082.0971 -2530.9957000000004 -2.0979938000000002 -1.981443 6.9225029000000005
60843 19285.278 -3216.5131 -6296.348900000001 527.909 -0.70280538 0.97829685 7.4026698
60843 19705.278 -3189.4305 -5286.9253 3483.814 0.82768346 3.7459935 6.442557
60843 20125.278 -2540.5446 -3246.5811000000003 5759.399200000001 2.1975605999999996 5.7886384 4.2345836
60843 20545.278 -1400.2439 -578.20402 6918.124 3.1397363 6.7040186 1.1981287
60843 20965.278 11.221781000000002 2202.009 6733.1621 3.4707969 6.3170943 -2.0639714
60843 21385.278 1420.4926 4555.697 5240.759599999999 3.1294971 4.7062676 -4.9256346
60843 21805.278 2554.4317 6026.4304 2730.1583 2.1811192 2.1814968 -6.8323559
60843 22225.278 3192.9798 6328.408200000001 -311.29642 0.8094519299999999 -0.76717566 -7.4111999
60843 22645.278 3212.5962999999997 5403.677 -3292.1638 -0.71763193 -3.5641597000000003 -6.5498708
60843 23065.278 2610.2615 3432.6325 -5634.509900000001 -2.1026826 -5.6661849 -4.421288
60843 23485.278 1503.8456 798.6262700000001 -6886.0863 -3.0793357 -6.670739800000001 -1.4411751
60843 23905.278 107.3542 -1989.4457 -6805.927900000001 -3.4616129 -6.388009200000001 1.8170989
60843 24325.278 -1309.7368999999999 -4393.2297 -5408.4041 -3.1754529000000002 -4.869807300000001 4.7295598000000005
60843 24745.278 -2473.4207 -5946.7300000000005 -2960.7902000000004 -2.2721322 -2.401344 6.7320047999999995
60843 25165.278 -3156.2603 -6344.6287999999995 62.493617 -0.9251476900000001 0.53940117 7.426891800000001
60843 25585.278 -3225.0433 -5508.1546 3073.5822000000003 0.6030589599999999 3.3779828000000003 6.6738034
60843 26005.278 -2666.54 -3600.219 5485.5188 2.0122569 5.5566857 4.6211679000000006
60843 26425.278 -1587.5729 -989.34032 6824.6684000000005 3.0314244 6.659083 1.6726868
60843 26845.278 -202.16591 1811.7721000000001 6840.7363 3.4587494000000003 6.46105 -1.6039874
60843 27265.278 1222.8181000000002 4261.2751 5523.7153 3.2149973000000003 5.010747 -4.564346899999999
60843 27685.278 2410.3891000000003 5883.4415 3131.5856000000003 2.3466617000000003 2.5860823 -6.63845
60843 28105.278 3129.7493 6362.720700000001 129.56238000000002 1.0224308 -0.34118305 -7.4201255
60843 28525.278 3241.5522 5606.7753 -2897.8006 -0.49802758999999996 -3.1977916 -6.7581318
60843 28945.278 2725.4526 3764.6011000000003 -5362.872 -1.9179535 -5.4280537 -4.787747500000001
60843 29365.278 1683.0901000000001 1195.4492 -6789.9218 -2.9638668 -6.6049435999999995 -1.8972114999999998
60843 29785.278 316.42056 -1604.1245000000001 -6905.4485 -3.4375245 -6.5081073 1.3560723000000001
60843 30205.278 -1111.1247 -4094.5324 -5687.169400000001 -3.2488282 -5.1560749 4.3511236
60843 30625.278 -2323.9763 -5794.1048 -3368.0631000000003 -2.4311641 -2.8025482999999998 6.5114966999999995
60843 31045.278 -3086.3615 -6370.816400000001 -395.16089 -1.1392620999999998 0.10220256999999999 7.4122985
60843 31465.278 -3249.2624 -5710.0638 2654.7026 0.3765973 2.9926848 6.870108500000001
60843 31885.278 -2780.3869 -3939.0306 5187.0765 1.8191168 5.3011838 4.9890514
60843 32305.278 -1771.2363 -1402.5158999999999 6709.035 2.9067518 6.577674 2.1389665
60843 32725.278 -418.52453 1405.8399 6925.635200000001 3.4294489 6.5769126 -1.1242491000000001
60843 33145.278 1015.5214000000001 3941.7893 5795.3701 3.2868648 5.2999315 -4.1697131
60843 33565.278 2252.4247 5712.5041 3537.1587000000004 2.5058172 2.9925342 -6.406039600000001
60843 33985.278 3051.7414 6373.4261 590.02704 1.2376694 0.10290713 -7.3954813
60843 34405.278 3258.4405 5796.6157 -2472.1503 -0.2690838 -2.8032075 -6.9451401
60843 34825.278 2833.6312000000003 4096.2642000000005 -5054.304700000001 -1.7197183 -5.1590133 -5.1485586
60843 35245.278 1861.2627 1604.2796 -6657.5223 -2.8341314000000004 -6.5122869 -2.3615356000000003
60843 35665.278 530.1287900000001 -1197.0221000000001 -6974.3809 -3.4007571 -6.6088058 0.87720166
60843 36085.278 -903.07263 -3767.6281000000004 -5944.1612000000005 -3.3121549 -5.4312019000000005 3.949052
60843 36505.278 -2161.8107000000005 -5610.760700000001 -3763.7456 -2.5829508999999997 -3.2001451000000003 6.264171800000001
60843 36925.278 -3001.5788 -6366.6812 -852.61468 -1.3504381 -0.34094887999999995 7.3693142
60843 37345.278 -3258.5347 -5886.4101 2224.3599 0.14733754999999998 2.5906917 7.040087499999999
60843 37765.278 -2881.8591 -4261.4908 4867.6815 1.6166066000000001 5.018923399999999 5.3385698
60843 38185.278 -1945.0999 -1808.2952 6562.661 2.7701981 6.469640900000001 2.5996842
60843 38605.278 -631.0540100000001 995.47572 6980.8189 3.384979 6.663621600000001 -0.64101361
60843 39025.278 805.54622 3606.5415000000003 6041.6975 3.3433162000000003 5.565141400000001 -3.7575304000000003
60843 39445.278 2085.8289 5517.764700000001 3927.222 2.6525846000000004 3.3854525 -6.1452122000000005
60843 39865.278 2961.0402000000004 6357.451599999999 1048.1736 1.4462986000000002 0.54708102 -7.3376002
60843 40285.278 3261.3286000000003 5962.712 -2035.0767 -0.039565997000000006 -2.3949496 -7.1014987000000005
60843 40705.278 2929.4982000000005 4412.2046 -4723.0743 -1.5141809000000002 -4.8662325 -5.4876645
60843 41125.278 2031.3043 2008.5742 -6495.9409000000005 -2.6921708 -6.391047800000001 -2.8169086
60843 41545.278 741.43983 -782.4252299999999 -7013.2659 -3.3493624 -6.681700200000001 0.39356581
60843 41965.278 -691.2428000000001 -3422.5897999999997 -6175.769700000001 -3.3611412 -5.6841883 3.5299462
60843 42385.278 -1990.3535 -5401.879 -4143.2456 -2.7231301 -3.5850102 5.9907252
60843 42805.278 -2903.6402000000003 -6334.2092 -1305.9688 -1.5548139 -0.78314729 7.2956879
60843 43225.278 -3253.0596 -6036.567599999999 1785.2726000000002 -0.081273534 2.1776836 7.180489400000001
60843 43645.278 -2969.6707 -4564.616 4528.3146 1.4083387 4.7155188 5.665051000000001
60843 44065.278 -2108.9121 -2205.1162999999997 6388.8274 2.6224266 6.3339963 3.0483731
60843 44485.278 -838.2666899999999 583.42651 7005.781400000001 3.3263781 6.7214768000000005 -0.15918139
60843 44905.278 594.60815 3257.9925000000003 6260.1189 3.384503 5.8048009 -3.3332152
60843 45325.278 1912.1241000000002 5300.546200000001 4296.9645 2.7858196 3.7609246 -5.8609518
60843 45745.278 2858.3788 6314.009 1497.4851 1.64575 0.98535967 -7.2493412
60843 46165.278 3249.6504 6101.5405 -1593.6237 0.18696839 -1.9798164 -7.2264693
60843 46585.278 3010.9679 4706.2574 -4375.091 -1.3048454999999999 -4.5551710000000005 -5.800437
60843 47005.278 2189.8574 2400.465 -6308.5201 -2.5403672000000004 -6.2436198 -3.2560612
60843 47425.278 946.3566400000001 -368.41953 -7022.215400000001 -3.2839383 -6.7254429 -0.087131311
60843 47845.278 -479.49161 -3066.2559 -6379.1793 -3.3945743000000004 -5.9106598 3.0997241
60843 48265.278 -1812.6645 -5172.0797999999995 -4501.889099999999 -2.8493029 -3.9513208 5.693969500000001
60843 48685.278 -2794.5933 -6275.7741 -1750.0946000000001 -1.7495188000000002 -1.2185934999999999 7.1908987
60843 49105.278 -3233.732 -6160.7823 1341.8609 -0.30669222 1.7578729000000002 7.2886945
60843 49525.278 -3043.7456 -4847.2315 4172.0585 1.1963743 4.3935557 5.9649326
60843 49945.278 -2261.8516 -2591.0193 6189.0410999999995 2.465031 6.1721519 3.4810337000000002
60843 50365.278 -1039.4676 171.05731 7001.5545999999995 3.2541015000000004 6.7504883 0.31959076
60843 50785.278 383.52169000000004 2897.4099 6450.9887 3.4105384 6.0184977 -2.8981996
60843 51205.278 1732.1054 5061.8916 4646.2042 2.9053354 4.1183176999999995 -5.5544222
60843 51625.278 2744.4251 6243.8323 1937.3365000000001 1.8356135 1.4168813 -7.1316562999999995
60843 52045.278 3223.8585000000003 6213.401 -1148.7627 0.40990085 -1.5589974 -7.3206842
60843 52465.278 3078.131 4978.0747 -4011.4847000000004 -1.0925397000000001 -4.2271713 -6.0871133
60843 52885.278 2336.6046 2779.0013 -6096.3008 -2.379721 -6.0713369 -3.6783557
60843 53305.278 1144.1592 43.567299 -7001.8251 -3.2053510000000003 -6.7408958000000005 -0.56343976
60843 53725.278 -268.82403000000005 -2700.2518 -6554.265 -3.4129088000000003 -6.1106579000000005 2.6602797999999996
60843 54145.278 -1629.8251 -4922.8058 -4838.756 -2.9613881 -4.2982136 5.3756976000000005
60843 54565.278 -2675.4007 -6192.5286 -2183.982 -1.9340123000000002 -1.6459887000000002 7.0555198
60843 54985.278 -3201.2871 -6259.750400000001 895.1503 -0.52838888 1.3321656000000002 7.3643848
60843 55405.278 -3104.6548 -5109.786599999999 3799.7377 0.98093374 4.0533217 6.2376721
60843 55825.278 -2404.4438999999998 -2966.4053 5963.865400000001 2.2980079 5.9841471 3.8974134
60843 56245.278 -1237.7309 -247.55604000000002 6967.7083 3.1669793 6.7509 0.80356197
60843 56665.278 169.06605 2519.602 6617.2895 3.4217643 6.2091598999999995 -2.4445706
